STARLINK-5826           
1 55782U 23028AT  26068.76930971 -.00000996  00000+0 -75635-4 0  9991
2 55782  69.9986 204.4326 0004001 275.9334  84.1369 14.98361608167039
LEMUR-2-MARACHE-FRAN    
1 63262U 25052BE  26068.70885648  .00008220  00000+0  68460-3 0  9999
2 63262  97.6985 323.5335 0002324  45.7689 314.3725 14.98898773 53859
